#dP2022  9 14 18  0  0.00000000      96 __u+U ITR00 EXT  IAC
## 2227 324000.00000000   900.00000000 59836 0.7500000000000
+  116   C06C07C08C09C10C11C12C13C14C16C19C20C21C22C23C24C25
+        C26C27C28C29C30C32C33C34C35C36C37C38C39C40C41C42C43
+        C44C45C46E01E02E03E04E05E07E08E09E10E11E12E13E14E15
+        E18E19E21E24E25E26E27E30E31E33E34E36G01G02G03G04G05
+        G06G07G08G09G10G11G12G13G14G15G16G17G18G19G20G21G22
+        G24G25G26G27G28G29G30G31G32J02J03R01R02R03R04R05R07
+        R08R09R11R12R13R14R15R17R18R19R20R21R24R25  0  0  0
++         8 10 10  9  8 13 10  9  9 11  7  8  9  8 10  9  8
++         8  7 10  8  8  8  9  8  7  9  8  8  8  9  8 10  8
++         9  8  8  8  7  7  9  8  7  7  9  8  9  7  7  5  8
++         8  9  8  8  6  7  9  6  8  8  8  8  7  7  8  8  7
++         8  6  6  7  7  7  8  9  7  7  7  8  7  8  8  7  6
++        11  6  6  6  9  9  7  6  6 10  9  8  8  8  8  9  9
++         8  9  8  8  8  8  8  8  8  9  9  9 10 10  0  0  0
%c M  cc GPS ccc cccc cccc cccc cccc ccccc ccccc ccccc ccccc
%c cc cc ccc ccc cccc cccc cccc cccc ccccc ccccc ccccc ccccc
%f  0.0000000  0.000000000  0.00000000000  0.000000000000000
%f  0.0000000  0.000000000  0.00000000000  0.000000000000000
%i    0    0    0    0      0      0      0      0         0
%i    0    0    0    0      0      0      0      0         0
/* IAC                                ULTRA-RAPID PREDICTION
/* S/V CLOCKS ARE ALIGNED TO GNSS TIME                      
/* G:C1WC2W R:C1PC2P E:C1XC5X C:C2IC6I J:C1CC2S             
/* PCV:IGS14_2218 OL/AL:FES2004  NONE     YN ORB:CoN CLK:CoN
*  2022 09 14 23 45  0.00000000
PC06 -11728.717405  23019.387562 -33347.342808    840.011885
PC07 -15394.914303  38715.082537   5892.915453   -142.118759
PC08    462.434958  33438.029228  25782.393509    471.316835
PC09  -1510.841264  24282.921314 -34055.642594   -863.545044
PC10  -9015.765509  39048.669677  12534.476925     96.639774
PC11 -14236.599912  13120.311954  20147.951117   -408.646306
PC12 -26883.098802   4170.346431   6195.349636   -517.986875
PC13   5895.081662  36958.302375  19828.098814     80.682323
PC14 -13487.004677  24395.425691    256.763882    653.048492
PC16 -16056.128487  21352.873442 -32491.507583    137.677598
PC19   6857.662320 -25513.946622   9030.764716   -655.994819
PC20  17276.099172 -20495.466355  -7807.595282    605.130348
PC21 -18007.590694   2678.122872  21150.448271   -397.129942
PC22  -7952.257151 -16045.144420  21399.617349   -624.981688
PC23  15678.957719  22987.949870   2157.132560    -86.448700
PC24 -13027.742870   9908.624344 -22605.531399   -146.155905
PC25   3371.612813  23936.400719 -13966.586818   -678.136052
PC26 -20013.656435  -7433.123079 -17961.155763     -7.609655
PC27  27757.402452   1446.226441   2431.904231     20.990077
PC28  18223.616585  11930.166961  17453.879218     13.050252
PC29   2477.574326 -15954.866589 -22767.043524     13.626109
PC30  21873.707643 -10576.043307 -13721.265384    502.947105
PC32  17975.911162  -2745.889932 -21163.499807   -803.380289
PC33  -6773.836774  25554.350720  -8916.448753   -664.306686
PC34 -21075.112035  11100.198034  14540.410723   -313.429940
PC35 -17409.565808 -11964.095672 -18256.386976    459.180213
PC36  -2292.032375 -23785.012073  14438.558338   -211.334997
PC37  19996.793165   9195.025088  17189.362214   -197.394346
PC38  -6524.951523  29262.247875  29728.772587     24.291971
PC39 -20870.168892  20743.702798 -30251.014841     -0.433037
PC40 -22446.178763  35391.319220   3386.372848     -4.162519
PC41   7639.006007  16467.668624 -21150.552854    -79.348173
PC42 -17661.512301  19685.750654   8910.566365   -296.358504
PC43  -3410.441795  16025.598670  22582.576974     14.279893
PC44 -27786.950584   -622.437397  -2659.369926     50.326849
PC45 -15825.582774 -22834.180471  -2483.847292    861.105571
PC46  11831.911683 -11446.850405  22536.682590   -542.113634
PE01  -7189.498118  26524.687833 -10991.967923   -528.174326
PE02   7093.083783 -26604.943144  10853.193138    324.737831
PE03  15282.453421 -20931.616276  14305.259418   -599.921615
PE04   4460.139847  16925.198280 -23868.811474  -1115.603158
PE05  26453.464636 -12706.074470  -3878.050604   -143.945099
PE07 -22073.402683  -2775.045413  19521.480095   -705.393982
PE08  -4517.734551 -16751.940751  23979.388319   -598.870665
PE09  21970.348085   2692.739492 -19660.966982   -658.780776
PE10  22306.982413  17841.026754   7782.635711   -476.879661
PE11  26625.965121  12653.439109  -2669.799135   2219.134402
PE12  14631.742290  20004.952199  16172.808376   -169.568197
PE13 -26474.640645 -13102.486285   1853.942781    430.573598
PE14      0.000000      0.000000      0.000000  -1720.579269
PE15 -14504.916786 -19938.517664 -16371.618927    720.368110
PE18 -19857.265397  -9155.734675 -18937.850791   -975.576992
PE19 -17552.159401  20432.543959 -12273.334244  -4529.561111
PE21 -15375.469969  11047.677027 -22746.302427   -757.767021
PE24  15131.979743  13034.856753  21848.783189   -837.224297
PE25  15462.233877 -10714.314406  22866.430960   -587.678652
PE26 -22323.413543   2130.077827  19313.929527  -1613.744754
PE27 -15415.772644 -11842.158868 -22309.524763   -392.224982
PE30  -5774.829902 -27908.311732  -7976.506817   -837.235584
PE31   6401.157815  27541.561360   8773.090603   -503.579563
PE33  -5944.555015  14975.268877  24830.855010   -453.728910
PE34   5750.085314 -15076.756415 -24823.297602     -4.543727
PE36  22807.309017  -1353.890175 -18822.733006   -431.562173
PG01 -22444.981606 -14405.726089   1702.484189    283.840826
PG02  19085.077421  16972.938863   7635.787652   -646.017788
PG03 -12163.380016 -13377.347366  19365.803100   -351.022832
PG04 -19686.712952  -4519.385209  17301.534132   -118.635196
PG05   7266.947509  22851.792823 -11456.369620    -96.694766
PG06  -5140.691552  14067.000559  21992.370231    460.991792
PG07 -22022.250197  -2528.103501 -14564.238574    307.507195
PG08 -11905.223326 -10611.536351 -21329.413979    -84.652001
PG09 -24524.072716   5752.539120   8411.511553   -296.007702
PG10  11384.480384 -18626.450320 -14761.227532     -3.312970
PG11   5910.376142  19448.151860  17113.701503    -16.580970
PG12  10868.635817  15036.092616  18781.135094   -278.433308
PG13   2318.610207  15054.962979 -21912.905755    387.627926
PG14 -13178.779946  16768.506518 -15752.236478   -103.499364
PG15  13422.279689   9984.370520 -21111.833409    -28.963351
PG16   -282.004626 -25577.797104  -6469.867039   -524.120968
PG17 -22136.694822  13543.694079   6230.730239    659.183635
PG18  21128.601973   1530.088726 -16113.907941     48.329745
PG19 -15398.618643  15787.845454  14375.334058    210.781042
PG20    577.288744  26574.821956   2371.521483    486.377541
PG21 -20141.806967 -16496.103886  -6311.367942    159.430512
PG22  12166.744789 -17070.458706  16625.459340    327.958857
PG24  22030.426461  15012.078807  -2957.669562    135.284486
PG25  15117.385840   1703.828758  21486.354168    372.079397
PG26   3447.248809 -25817.268593   4141.581986    228.526715
PG27   1079.926618 -16441.625235 -20960.019344    211.411852
PG28  -9296.129884  23673.376521  -7560.033935    338.148737
PG29  24769.000189  -3099.991127   9149.445676   -551.602845
PG30 -14976.302742   7870.631107 -20435.190375   -536.958455
PG31   4676.722729 -15066.100308  21163.665693   -193.370571
PG32  19569.772375 -15942.370426   8087.684808   -233.462401
PJ02 -21209.128857  28943.869462 -17552.964563     -5.043050
PJ03 -29163.523211  23380.382828  24530.785035     -1.616263
PR01  14704.841556  -2752.333200 -20668.093432     14.748245
PR02  17842.254174 -17225.952907  -5779.662530    -22.663079
PR03   9755.948868 -20550.884996  11516.775360     63.726914
PR04  -3297.345589 -12246.386592  22151.158913    157.602635
PR05 -14739.465765   2646.132200  20662.654190     99.645779
PR07  -9370.571142  20441.904391 -12057.863202     40.982772
PR08   3477.308787  12232.904384 -22065.799782    -67.176485
PR09  -7871.494204   9786.340962 -22168.814838     76.735963
PR11  11128.464089  22548.054828   4257.296926     27.428674
PR12  13573.656269   9013.775445  19662.558325     21.277252
PR13   8398.531736  -8250.265707  22620.547261    -26.800776
PR14  -2520.096486 -22400.836107  11975.459064     24.261586
PR15 -11226.451651 -22312.713558  -5164.128727     93.715211
PR17   2448.249711 -10271.535336 -23213.424869    561.131548
PR18 -15124.031939 -10671.324598 -17558.294376     42.444342
PR19 -24260.919763  -6775.581508  -3975.998153   -203.708623
PR20 -19952.548829   2946.454595  15642.835998    -78.408488
PR21   -650.675529  10493.778346  23239.882983   -333.764251
PR24  19456.776969  -4125.995018 -15971.218013    114.618776
PR25  15193.630026  11482.529303  16991.195836     13.178072
EOF
